{
    "links": {
        "self": "http://www.neowsapp.com/rest/v1/neo/3550044?api_key=iIulBulltgU6a56xZRHN4H3l9WmuAYTsLGpBGhQ2"
    },
    "id": "3550044",
    "neo_reference_id": "3550044",
    "name": "(2010 UA7)",
    "designation": "2010 UA7",
    "nasa_jpl_url": "http://ssd.jpl.nasa.gov/sbdb.cgi?sstr=3550044",
    "absolute_magnitude_h": 23.3,
    "estimated_diameter": {
        "kilometers": {
            "estimated_diameter_min": 0.058150704,
            "estimated_diameter_max": 0.130028927
        },
        "meters": {
            "estimated_diameter_min": 58.1507039646,
            "estimated_diameter_max": 130.0289270043
        },
        "miles": {
            "estimated_diameter_min": 0.0361331611,
            "estimated_diameter_max": 0.0807962044
        },
        "feet": {
            "estimated_diameter_min": 190.7831555951,
            "estimated_diameter_max": 426.6041048727
        }
    },
    "is_potentially_hazardous_asteroid": false,
    "close_approach_data": [
        {
            "close_approach_date": "1992-10-25",
            "close_approach_date_full": "1992-Oct-25 22:52",
            "epoch_date_close_approach": 720053520000,
            "relative_velocity": {
                "kilometers_per_second": "7.893151144",
                "kilometers_per_hour": "28415.3441182795",
                "miles_per_hour": "17656.1897939387"
            },
            "miss_distance": {
                "astronomical": "0.3603945554",
                "lunar": "140.1934820506",
                "kilometers": "53914257.847436998",
                "miles": "33500766.3752186524"
            },
            "orbiting_body": "Earth"
        },
        {
            "close_approach_date": "2010-10-31",
            "close_approach_date_full": "2010-Oct-31 05:51",
            "epoch_date_close_approach": 1288504260000,
            "relative_velocity": {
                "kilometers_per_second": "4.3833394113",
                "kilometers_per_hour": "15780.0218806374",
                "miles_per_hour": "9805.0919291105"
            },
            "miss_distance": {
                "astronomical": "0.1749176961",
                "lunar": "68.0429837829",
                "kilometers": "26167314.761867307",
                "miles": "16259615.4246385566"
            },
            "orbiting_body": "Earth"
        },
        {
            "close_approach_date": "2028-11-01",
            "close_approach_date_full": "2028-Nov-01 12:20",
            "epoch_date_close_approach": 1856694000000,
            "relative_velocity": {
                "kilometers_per_second": "5.4992444599",
                "kilometers_per_hour": "19797.2800557579",
                "miles_per_hour": "12301.2599324236"
            },
            "miss_distance": {
                "astronomical": "0.234188212",
                "lunar": "91.099214468",
                "kilometers": "35034057.69430844",
                "miles": "21769154.002158872"
            },
            "orbiting_body": "Earth"
        }
    ],
    "orbital_data": {
        "orbit_id": "13",
        "orbit_determination_date": "2017-04-06 08:56:10",
        "first_observation_date": "2010-10-28",
        "last_observation_date": "2010-12-01",
        "data_arc_in_days": 34,
        "observations_used": 33,
        "orbit_uncertainty": "6",
        "minimum_orbit_intersection": ".173205",
        "jupiter_tisserand_invariant": "3.372",
        "epoch_osculation": "2459000.5",
        "eccentricity": ".5042087949760719",
        "semi_major_axis": "2.350346665595878",
        "inclination": "3.693543760603314",
        "ascending_node_longitude": "217.9349753307936",
        "orbital_period": "1316.122495009383",
        "perihelion_distance": "1.165281205559752",
        "perihelion_argument": "181.3464996431935",
        "aphelion_distance": "3.535412125632005",
        "perihelion_time": "2459452.161796603989",
        "mean_anomaly": "236.4566008148983",
        "mean_motion": ".2735307703994783",
        "equinox": "J2000",
        "orbit_class": {
            "orbit_class_type": "AMO",
            "orbit_class_description": "Near-Earth asteroid orbits similar to that of 1221 Amor",
            "orbit_class_range": "1.017 AU < q (perihelion) < 1.3 AU"
        }
    },
    "is_sentry_object": false
}